[{"OBJECT_NAME":"STARLINK-31565","OBJECT_ID":"2024-057D","EPOCH":"2026-03-09T09:11:20.159808","MEAN_MOTION":15.27598609,"ECCENTRICITY":0.00014609,"INCLINATION":43.0003,"RA_OF_ASC_NODE":196.4627,"ARG_OF_PERICENTER":279.4542,"MEAN_ANOMALY":80.6144,"EPHEMERIS_TYPE":0,"CLASSIFICATION_TYPE":"U","NORAD_CAT_ID":59323,"ELEMENT_SET_NO":999,"REV_AT_EPOCH":10970,"BSTAR":-0.00022085213,"MEAN_MOTION_DOT":-6.338e-5,"MEAN_MOTION_DDOT":0},{"OBJECT_NAME":"COSMOS 2251 DEB","OBJECT_ID":"1993-036BXP","EPOCH":"2026-03-04T07:23:49.847712","MEAN_MOTION":15.24789556,"ECCENTRICITY":0.00190834,"INCLINATION":73.9759,"RA_OF_ASC_NODE":64.3004,"ARG_OF_PERICENTER":239.4537,"MEAN_ANOMALY":120.4779,"EPHEMERIS_TYPE":0,"CLASSIFICATION_TYPE":"U","NORAD_CAT_ID":47059,"ELEMENT_SET_NO":999,"REV_AT_EPOCH":9543,"BSTAR":0.0048704033,"MEAN_MOTION_DOT":0.00123422,"MEAN_MOTION_DDOT":0}]
